OBJECT_NAME,OBJECT_ID,EPOCH,MEAN_MOTION,ECCENTRICITY,INCLINATION,RA_OF_ASC_NODE,ARG_OF_PERICENTER,MEAN_ANOMALY,EPHEMERIS_TYPE,CLASSIFICATION_TYPE,NORAD_CAT_ID,ELEMENT_SET_NO,REV_AT_EPOCH,BSTAR,MEAN_MOTION_DOT,MEAN_MOTION_DDOT
BEIDOU-3S IGSO-1S (C31),2015-019A,2026-07-02T19:12:21.705408,1.00680073,.00768606,49.1798,295.2769,219.1125,144.2493,0,U,40549,999,4123,0,-.19E-5,0
GPS BIIF-10 (PRN 08),2015-033A,2026-07-19T15:07:04.615392,2.00554635,.01154315,53.9579,265.7473,30.2916,330.4403,0,U,40730,999,8064,0,-.36E-6,0
BEIDOU-3S M2S (C58),2015-037A,2026-07-19T00:04:56.720928,1.86231862,.0009533,54.8406,300.9506,256.5664,103.3636,0,U,40748,999,7471,0,-.93E-6,0
BEIDOU-3S M1S (C57),2015-037B,2026-07-19T17:51:05.804352,1.86254903,.00026277,54.8363,300.9120,62.7440,297.3182,0,U,40749,999,7473,0,-.97E-6,0
GSAT0206 (GALILEO 10),2015-045B,2026-07-16T18:52:25.755744,1.70473544,.0002263,54.9385,220.7865,327.7315,32.3020,0,U,40890,999,6754,0,.48E-6,0
BEIDOU-3S IGSO-2S (C56),2015-053A,2026-07-19T19:44:24.614304,1.00252447,.00661783,49.1703,258.3907,193.5852,234.7482,0,U,40938,999,3968,0,-.107E-5,0
GPS BIIF-11 (PRN 10),2015-062A,2026-07-19T16:25:43.400640,2.00567075,.01130428,56.9814,29.5602,230.8576,128.1660,0,U,41019,999,7848,0,-.87E-6,0
GSAT-15 (GAGAN/PRN 139),2015-065A,2026-07-20T03:18:31.236192,1.00272006,.00035524,0.1047,263.6200,177.2764,0.1546,0,U,41028,999,3912,0,-.26E-5,0
GSAT0209 (GALILEO 12),2015-079A,2026-07-19T21:18:19.364832,1.70473671,.00046186,55.8457,100.3644,358.4074,1.6290,0,U,41174,999,6533,0,-.39E-6,0
GSAT0208 (GALILEO 11),2015-079B,2026-07-20T02:35:36.500640,1.70473574,.00042689,55.8443,100.3553,359.9028,0.1346,0,U,41175,999,6575,0,-.4E-6,0
IRNSS-1E,2016-003A,2026-07-18T14:25:22.354752,1.00276269,.0019245,33.2996,59.2938,176.3205,28.9297,0,U,41241,999,3839,0,-.316E-5,0
GPS BIIF-12 (PRN 32),2016-007A,2026-07-19T06:39:02.507904,2.00575263,.00966413,55.5436,88.1869,247.5846,111.4417,0,U,41328,999,7648,0,-.45E-6,0
COSMOS 2514 (751),2016-008A,2026-07-18T17:24:53.172288,2.13102626,.00124281,65.0007,311.9242,201.6103,158.3594,0,U,41330,999,8129,0,-.74E-6,0
BEIDOU-2 IGSO-6 (C13),2016-021A,2026-06-26T02:38:38.671584,1.00258926,.0057558,60.2385,37.9495,231.0163,137.2672,0,U,41434,999,3757,0,-.145E-5,0
IRNSS-1G,2016-027A,2026-07-20T00:03:31.241952,1.00268539,.00059317,5.2743,96.7153,12.9086,318.6857,0,U,41469,999,3750,0,-.34E-5,0
GSAT0211 (GALILEO 14),2016-030A,2026-07-19T15:28:50.737152,1.70473736,.00034407,55.0892,220.8014,318.9496,41.0633,0,U,41549,999,6322,0,.54E-6,0
GSAT0210 (GALILEO 13),2016-030B,2026-07-19T21:39:16.164288,1.70473957,.00047103,55.0878,220.7925,246.5746,113.4149,0,U,41550,999,6322,0,.55E-6,0
BEIDOU-2 G7 (C03),2016-037A,2026-07-20T06:48:38.240352,1.00271079,.00060283,1.8005,69.5515,0.4999,80.7241,0,U,41586,999,722,0,-.356E-5,0
EUTELSAT 117 WEST B (WAAS/PRN 131),2016-038B,2026-07-20T07:32:32.456256,1.00270343,.00001709,0.0059,160.2063,15.9679,118.0591,0,U,41589,999,3699,0,-.13E-6,0
GSAT0207 (GALILEO 15),2016-069A,2026-07-19T00:11:10.718880,1.70473625,.00045611,55.5168,100.2055,339.0572,20.9632,0,U,41859,999,5994,0,-.35E-6,0
GSAT0212 (GALILEO 16),2016-069B,2026-07-20T00:49:26.226912,1.70473716,.00043476,55.5153,100.1720,11.7607,348.2871,0,U,41860,999,6021,0,-.4E-6,0
GSAT0213 (GALILEO 17),2016-069C,2026-07-19T19:33:27.323712,1.70474157,.00039031,55.5171,100.1861,321.1021,38.9078,0,U,41861,999,6007,0,-.39E-6,0
GSAT0214 (GALILEO 18),2016-069D,2026-07-19T23:04:06.356352,1.70473810,.00032629,55.5157,100.1745,333.3186,26.7024,0,U,41862,999,6020,0,-.4E-6,0
SES-15 (WAAS/PRN 133),2017-026A,2026-07-20T03:11:44.955744,1.00270874,.00004909,0.0276,320.0256,175.2151,81.4573,0,U,42709,999,776,0,.57E-6,0
QZS-2 (QZSS/PRN 194),2017-028A,2026-07-19T10:28:17.573664,1.00275667,.07569995,39.3809,242.6784,269.6501,84.4438,0,U,42738,999,795,0,-.145E-5,0
QZS-3 (QZSS/PRN 199),2017-048A,2026-07-20T06:53:22.784928,1.00270151,.00027556,0.0597,207.8395,278.5962,42.0020,0,U,42917,999,3259,0,-.35E-5,0
COSMOS 2522 (752),2017-055A,2026-07-18T02:15:19.099584,2.13101776,.0010876,64.0809,190.8323,240.6480,119.2397,0,U,42939,999,6863,0,.6E-6,0
QZS-4 (QZSS/PRN 195),2017-062A,2026-07-19T17:18:02.105280,1.00289629,.07470384,40.0889,343.0703,268.6623,84.6148,0,U,42965,999,3213,0,-.359E-5,0
BEIDOU-3 M1 (C19),2017-069A,2026-07-19T21:17:47.555808,1.86231171,.00091788,56.7214,62.0072,326.7417,33.2640,0,U,43001,999,5921,0,-.76E-6,0
BEIDOU-3 M2 (C20),2017-069B,2026-07-19T19:49:58.573632,1.86204093,.00059342,56.7156,62.0460,145.8292,214.2725,0,U,43002,999,5920,0,-.75E-6,0
GSAT0215 (GALILEO 19),2017-079A,2026-07-19T06:39:33.391584,1.70474412,.00037426,55.0670,220.6230,269.1143,90.8812,0,U,43055,999,5353,0,.52E-6,0
